COMMENT,ORIGINATOR,NORAD_CAT_ID,OBJECT_NAME,OBJECT_TYPE,CLASSIFICATION_TYPE,INTLDES,EPOCH,EPOCH_MICROSECONDS,MEAN_MOTION,ECCENTRICITY,INCLINATION,RA_OF_ASC_NODE,ARG_OF_PERICENTER,MEAN_ANOMALY,EPHEMERIS_TYPE,ELEMENT_SET_NO,REV_AT_EPOCH,BSTAR,MEAN_MOTION_DOT,MEAN_MOTION_DDOT,FILE,TLE_LINE0,TLE_LINE1,TLE_LINE2,OBJECT_ID,OBJECT_NUMBER,SEMIMAJOR_AXIS,PERIOD,APOGEE,PERIGEE,DECAYED
GENERATED VIA SPACETRACK.ORG API,18 SPCS,4084,SL-8 DEB,DEBRIS,U,69070C,2024-04-22 18:23:21,125472,14.46538879,0.0020765,74.0688,340.2297,72.7917,287.5512,0,999,88217,0.00015724,5.41e-06,0,4295412,0 SL-8 DEB,1 04084U 69070C   24113.76621673  .00000541  00000-0  15724-3 0  9999,2 04084  74.0688 340.2297 0020765  72.7917 287.5512 14.46538879882172,1969-070C,4084,7115.112,99.548,751.752,722.203,0
GENERATED VIA SPACETRACK.ORG API,18 SPCS,4084,SL-8 DEB,DEBRIS,U,69070C,2024-04-23 01:01:42,354912,14.46539116,0.0020763,74.0688,339.7142,72.1447,288.1974,0,999,88221,0.00015408,5.3e-06,0,4296658,0 SL-8 DEB,1 04084U 69070C   24114.04285133  .00000530  00000-0  15408-3 0  9995,2 04084  74.0688 339.7142 0020763  72.1447 288.1974 14.46539116882213,1969-070C,4084,7115.112,99.548,751.75,722.204,0
GENERATED VIA SPACETRACK.ORG API,18 SPCS,4084,SL-8 DEB,DEBRIS,U,69070C,2024-04-23 22:36:21,276288,14.46540127,0.0020779,74.0686,338.0383,70.1841,290.1555,0,999,88234,0.00014749,5.06e-06,0,4296933,0 SL-8 DEB,1 04084U 69070C   24114.94191292  .00000506  00000-0  14749-3 0  9996,2 04084  74.0686 338.0383 0020779  70.1841 290.1555 14.46540127882349,1969-070C,4084,7115.108,99.548,751.758,722.189,0
GENERATED VIA SPACETRACK.ORG API,18 SPCS,4084,SL-8 DEB,DEBRIS,U,69070C,2024-04-24 00:15:56,570688,14.46540274,0.0020802,74.0687,337.9094,70.0913,290.2485,0,999,88235,0.00014821,5.09e-06,0,4297616,0 SL-8 DEB,1 04084U 69070C   24115.01107142  .00000509  00000-0  14821-3 0  9990,2 04084  74.0687 337.9094 0020802  70.0913 290.2485 14.46540274882350,1969-070C,4084,7115.108,99.548,751.774,722.172,0
GENERATED VIA SPACETRACK.ORG API,18 SPCS,4084,SL-8 DEB,DEBRIS,U,69070C,2024-04-24 18:31:24,835008,14.46541209,0.0020792,74.0685,336.4918,68.5094,291.8279,0,999,88244,0.00014762,5.07e-06,0,4297736,0 SL-8 DEB,1  4084U 69070C   24115.77181522  .00000507  00000-0  14762-3 0  9999,2  4084  74.0685 336.4918 0020792  68.5094 291.8279 14.46541209882444,1969-070C,4084,7115.105,99.548,751.764,722.176,0
GENERATED VIA SPACETRACK.ORG API,18 SPCS,4084,SL-8 DEB,DEBRIS,U,69070C,2024-04-24 21:50:35,423808,14.46541538,0.0020797,74.0686,336.234,68.2134,292.1235,0,999,88248,0.00015605,5.37e-06,0,4297865,0 SL-8 DEB,1 04084U 69070C   24115.91013222  .00000537  00000-0  15605-3 0  9996,2 04084  74.0686 336.2340 0020797  68.2134 292.1235 14.46541538882484,1969-070C,4084,7115.104,99.548,751.766,722.171,0
GENERATED VIA SPACETRACK.ORG API,18 SPCS,4084,SL-8 DEB,DEBRIS,U,69070C,2024-04-25 14:26:28,369536,14.46542012,0.0020791,74.0683,334.9449,66.4829,293.8512,0,999,88258,0.00013958,4.77e-06,0,4298476,0 SL-8 DEB,1 04084U 69070C   24116.60171724  .00000477  00000-0  13958-3 0  9997,2 04084  74.0683 334.9449 0020791  66.4829 293.8512 14.46542012882586,1969-070C,4084,7115.102,99.548,751.76,722.174,0
GENERATED VIA SPACETRACK.ORG API,18 SPCS,4084,SL-8 DEB,DEBRIS,U,69070C,2024-04-25 21:04:49,537632,14.465427,0.0020791,74.0683,334.4293,65.8758,294.4572,0,999,88262,0.00016082,5.54e-06,0,4298762,0 SL-8 DEB,1 04084U 69070C   24116.87835113  .00000554  00000-0  16082-3 0  9992,2 04084  74.0683 334.4293 0020791  65.8758 294.4572 14.46542700882624,1969-070C,4084,7115.1,99.548,751.758,722.172,0
GENERATED VIA SPACETRACK.ORG API,18 SPCS,4084,SL-8 DEB,DEBRIS,U,69070C,2024-04-26 07:02:21,280704,14.46542654,0.0020805,74.0683,333.656,64.9021,295.4293,0,999,88268,0.00013327,4.55e-06,0,4299439,0 SL-8 DEB,1 04084U 69070C   24117.29330186  .00000455  00000-0  13327-3 0  9998,2 04084  74.0683 333.6560 0020805  64.9021 295.4293 14.46542654882686,1969-070C,4084,7115.1,99.548,751.768,722.162,0
GENERATED VIA SPACETRACK.ORG API,18 SPCS,4084,SL-8 DEB,DEBRIS,U,69070C,2024-04-26 20:19:03,574560,14.46543392,0.0020816,74.0682,332.6249,63.6628,296.6665,0,999,88274,0.00013879,4.75e-06,0,4299556,0 SL-8 DEB,1  4084U 69070C   24117.84656915  .00000475  00000-0  13879-3 0  9994,2  4084  74.0682 332.6249 0020816  63.6628 296.6665 14.46543392882742,1969-070C,4084,7115.098,99.548,751.773,722.152,0
GENERATED VIA SPACETRACK.ORG API,18 SPCS,4084,SL-8 DEB,DEBRIS,U,69070C,2024-04-26 20:19:03,574560,14.46543392,0.0020816,74.0682,332.6249,63.6628,296.6665,0,999,88276,0.00013879,4.75e-06,0,4299721,0 SL-8 DEB,1 04084U 69070C   24117.84656915  .00000475  00000-0  13879-3 0  9994,2 04084  74.0682 332.6249 0020816  63.6628 296.6665 14.46543392882764,1969-070C,4084,7115.098,99.548,751.773,722.152,0
GENERATED VIA SPACETRACK.ORG API,18 SPCS,4084,SL-8 DEB,DEBRIS,U,69070C,2024-04-27 14:34:31,695456,14.46543951,0.0020842,74.0679,331.2067,61.9766,298.3497,0,999,88287,0.00012225,4.15e-06,0,4300408,0 SL-8 DEB,1 04084U 69070C   24118.60731129  .00000415  00000-0  12225-3 0  9998,2 04084  74.0679 331.2067 0020842  61.9766 298.3497 14.46543951882871,1969-070C,4084,7115.096,99.548,751.79,722.132,0
GENERATED VIA SPACETRACK.ORG API,18 SPCS,4084,SL-8 DEB,DEBRIS,U,69070C,2024-04-27 21:12:52,827264,14.4654427,0.0020844,74.0679,330.6913,61.2889,299.0361,0,999,88291,0.00012551,4.27e-06,0,4300757,0 SL-8 DEB,1 04084U 69070C   24118.88394476  .00000427  00000-0  12551-3 0  9993,2 04084  74.0679 330.6913 0020844  61.2889 299.0361 14.46544270882913,1969-070C,4084,7115.095,99.548,751.79,722.129,0
GENERATED VIA SPACETRACK.ORG API,18 SPCS,4084,SL-8 DEB,DEBRIS,U,69070C,2024-04-28 13:48:45,638208,14.46544478,0.0020869,74.0678,329.4023,59.7908,300.5314,0,999,88301,9.9416e-05,3.32e-06,0,4301411,0 SL-8 DEB,1 04084U 69070C   24119.57552822  .00000332  00000-0  99416-4 0  9992,2 04084  74.0678 329.4023 0020869  59.7908 300.5314 14.46544478883019,1969-070C,4084,7115.094,99.548,751.808,722.111,0
GENERATED VIA SPACETRACK.ORG API,18 SPCS,4084,SL-8 DEB,DEBRIS,U,69070C,2024-04-28 20:27:06,762240,14.46544661,0.0020875,74.0678,328.8867,59.1621,301.1588,0,999,88303,9.7705e-05,3.26e-06,0,4301589,0 SL-8 DEB,1  4084U 69070C   24119.85216160  .00000326  00000-0  97705-4 0  9997,2  4084  74.0678 328.8867 0020875  59.1621 301.1588 14.46544661883037,1969-070C,4084,7115.093,99.548,751.811,722.106,0
GENERATED VIA SPACETRACK.ORG API,18 SPCS,4084,SL-8 DEB,DEBRIS,U,69070C,2024-04-28 22:06:42,41952,14.46544705,0.0020878,74.0677,328.7578,58.996,301.3245,0,999,88306,9.6838e-05,3.23e-06,0,4301761,0 SL-8 DEB,1 04084U 69070C   24119.92131993  .00000323  00000-0  96838-4 0  9998,2 04084  74.0677 328.7578 0020878  58.9960 301.3245 14.46544705883064,1969-070C,4084,7115.093,99.548,751.813,722.103,0
GENERATED VIA SPACETRACK.ORG API,18 SPCS,4084,SL-8 DEB,DEBRIS,U,69070C,2024-04-29 14:42:34,822656,14.46545142,0.0020896,74.0676,327.4688,57.4698,302.8476,0,999,88316,8.67e-05,2.86e-06,0,4302365,0 SL-8 DEB,1 04084U 69070C   24120.61290304  .00000286  00000-0  86700-4 0  9993,2 04084  74.0676 327.4688 0020896  57.4698 302.8476 14.46545142883162,1969-070C,4084,7115.092,99.548,751.825,722.089,0
GENERATED VIA SPACETRACK.ORG API,18 SPCS,4084,SL-8 DEB,DEBRIS,U,69070C,2024-04-29 23:00:31,209984,14.46545354,0.0020903,74.0676,326.8243,56.7065,303.6092,0,999,88321,8.4751e-05,2.79e-06,0,4302696,0 SL-8 DEB,1 04084U 69070C   24120.95869456  .00000279  00000-0  84751-4 0  9996,2 04084  74.0676 326.8243 0020903  56.7065 303.6092 14.46545354883215,1969-070C,4084,7115.091,99.548,751.829,722.084,0
GENERATED VIA SPACETRACK.ORG API,18 SPCS,4084,SL-8 DEB,DEBRIS,U,69070C,2024-04-30 13:56:48,689376,14.46545841,0.0020917,74.0675,325.6641,55.3572,304.9554,0,999,88330,8.3952e-05,2.77e-06,0,4303298,0 SL-8 DEB,1 04084U 69070C   24121.58111909  .00000277  00000-0  83952-4 0  9999,2 04084  74.0675 325.6641 0020917  55.3572 304.9554 14.46545841883304,1969-070C,4084,7115.09,99.547,751.837,722.072,0
GENERATED VIA SPACETRACK.ORG API,18 SPCS,4084,SL-8 DEB,DEBRIS,U,69070C,2024-04-30 20:35:09,783168,14.46546045,0.0020919,74.0675,325.1485,54.7355,305.5757,0,999,88332,8.5113e-05,2.81e-06,0,4303413,0 SL-8 DEB,1  4084U 69070C   24121.85775212  .00000281  00000-0  85113-4 0  9998,2  4084  74.0675 325.1485 0020919  54.7355 305.5757 14.46546045883320,1969-070C,4084,7115.089,99.547,751.838,722.07,0
GENERATED VIA SPACETRACK.ORG API,18 SPCS,4084,SL-8 DEB,DEBRIS,U,69070C,2024-04-30 22:14:45,56832,14.46546098,0.0020924,74.0675,325.0196,54.5723,305.7385,0,999,88335,8.514e-05,2.81e-06,0,4303571,0 SL-8 DEB,1 04084U 69070C   24121.92691038  .00000281  00000-0  85140-4 0  9999,2 04084  74.0675 325.0196 0020924  54.5723 305.7385 14.46546098883351,1969-070C,4084,7115.089,99.547,751.841,722.066,0
GENERATED VIA SPACETRACK.ORG API,18 SPCS,4084,SL-8 DEB,DEBRIS,U,69070C,2024-05-01 06:32:41,423424,14.46546375,0.0020933,74.0674,324.375,53.798,306.511,0,999,88340,8.7249e-05,2.88e-06,0,4304190,0 SL-8 DEB,1 04084U 69070C   24122.27270166  .00000288  00000-0  87249-4 0  9992,2 04084  74.0674 324.3750 0020933  53.7980 306.5110 14.46546375883403,1969-070C,4084,7115.088,99.547,751.847,722.059,0
GENERATED VIA SPACETRACK.ORG API,18 SPCS,4084,SL-8 DEB,DEBRIS,U,69070C,2024-05-01 19:49:23,607552,14.46546469,0.0020944,74.0673,323.3438,52.5786,307.7274,0,999,88348,7.5132e-05,2.45e-06,0,4304452,0 SL-8 DEB,1 04084U 69070C   24122.82596768  .00000245  00000-0  75132-4 0  9993,2 04084  74.0673 323.3438 0020944  52.5786 307.7274 14.46546469883483,1969-070C,4084,7115.088,99.547,751.854,722.051,0
GENERATED VIA SPACETRACK.ORG API,18 SPCS,4084,SL-8 DEB,DEBRIS,U,69070C,2024-05-02 14:04:51,590208,14.46546866,0.0020971,74.0672,321.9258,50.9095,309.3924,0,999,88359,7.0932e-05,2.29e-06,0,4305180,0 SL-8 DEB,1 04084U 69070C   24123.58670822  .00000229  00000-0  70932-4 0  9996,2 04084  74.0672 321.9258 0020971  50.9095 309.3924 14.46546866883594,1969-070C,4084,7115.086,99.547,751.872,722.03,0
